{
  "type": "FeatureCollection",
  "features": [
    {
      "type": "Feature",
      "properties": {
        "norad_id": 48859,
        "name": "GPS BIII-5  (PRN 11)",
        "group": "gps-ops",
        "lat": -38.99756795432437,
        "lon": -165.86933259461418,
        "alt_km": 20122.319760307637,
        "timestamp": "2025-12-12T20:43:07.293989+00:00",
        "meta_object_name": "GPS BIII-5  (PRN 11)",
        "meta_object_id": "2021-054A",
        "meta_epoch": "2025-12-08T04:14:32.423424",
        "meta_mean_motion": 2.00553627,
        "meta_eccentricity": 0.0024678,
        "meta_inclination": 55.2581,
        "meta_ra_of_asc_node": 340.1367,
        "meta_arg_of_pericenter": 233.3994,
        "meta_mean_anomaly": 212.8593,
        "meta_ephemeris_type": 0,
        "meta_classification_type": "U",
        "meta_norad_cat_id": 48859,
        "meta_element_set_no": 999,
        "meta_rev_at_epoch": 3292,
        "meta_bstar": 0,
        "meta_mean_motion_dot": -8.6e-07,
        "meta_mean_motion_ddot": 0,
        "tle_line1": "1 48859U 21054A   25342.17676416 -.00000086  00000+0  00000+0 0  9993",
        "tle_line2": "2 48859  55.2581 340.1367 0024678 233.3994 212.8593  2.00553627 32922"
      },
      "geometry": {
        "type": "Point",
        "coordinates": [
          -165.86933259461418,
          -38.99756795432437
        ]
      }
    },
    {
      "type": "Feature",
      "properties": {
        "norad_id": 55268,
        "name": "GPS BIII-6  (PRN 28)",
        "group": "gps-ops",
        "lat": -55.01144308778671,
        "lon": 69.95029884919155,
        "alt_km": 20187.977038465848,
        "timestamp": "2025-12-12T20:43:07.294001+00:00",
        "meta_object_name": "GPS BIII-6  (PRN 28)",
        "meta_object_id": "2023-009A",
        "meta_epoch": "2025-12-10T05:50:57.225696",
        "meta_mean_motion": 2.00555847,
        "meta_eccentricity": 0.00036975,
        "meta_inclination": 55.1051,
        "meta_ra_of_asc_node": 155.9432,
        "meta_arg_of_pericenter": 357.7706,
        "meta_mean_anomaly": 183.2285,
        "meta_ephemeris_type": 0,
        "meta_classification_type": "U",
        "meta_norad_cat_id": 55268,
        "meta_element_set_no": 999,
        "meta_rev_at_epoch": 2145,
        "meta_bstar": 0,
        "meta_mean_motion_dot": 7.5e-07,
        "meta_mean_motion_ddot": 0,
        "tle_line1": "1 55268U 23009A   25344.24371789  .00000075  00000+0  00000+0 0  9999",
        "tle_line2": "2 55268  55.1051 155.9432 0003697 357.7706 183.2285  2.00555847 21451"
      },
      "geometry": {
        "type": "Point",
        "coordinates": [
          69.95029884919155,
          -55.01144308778671
        ]
      }
    },
    {
      "type": "Feature",
      "properties": {
        "norad_id": 62339,
        "name": "GPS BIII-7  (PRN 01)",
        "group": "gps-ops",
        "lat": -8.3292694386349,
        "lon": -24.172854802857746,
        "alt_km": 20151.174650601068,
        "timestamp": "2025-12-12T20:43:07.294012+00:00",
        "meta_object_name": "GPS BIII-7  (PRN 01)",
        "meta_object_id": "2024-242A",
        "meta_epoch": "2025-12-10T14:03:42.090048",
        "meta_mean_motion": 2.00567746,
        "meta_eccentricity": 0.0012131,
        "meta_inclination": 54.9242,
        "meta_ra_of_asc_node": 341.8267,
        "meta_arg_of_pericenter": 344.331,
        "meta_mean_anomaly": 161.0631,
        "meta_ephemeris_type": 0,
        "meta_classification_type": "U",
        "meta_norad_cat_id": 62339,
        "meta_element_set_no": 999,
        "meta_rev_at_epoch": 747,
        "meta_bstar": 0,
        "meta_mean_motion_dot": -9e-07,
        "meta_mean_motion_ddot": 0,
        "tle_line1": "1 62339U 24242A   25344.58590382 -.00000090  00000+0  00000+0 0  9993",
        "tle_line2": "2 62339  54.9242 341.8267 0012131 344.3310 161.0631  2.00567746  7471"
      },
      "geometry": {
        "type": "Point",
        "coordinates": [
          -24.172854802857746,
          -8.3292694386349
        ]
      }
    },
    {
      "type": "Feature",
      "properties": {
        "norad_id": 64202,
        "name": "GPS BIII-8  (PRN 21)",
        "group": "gps-ops",
        "lat": 0.6211282989057416,
        "lon": -141.7826790239751,
        "alt_km": 20192.086430014187,
        "timestamp": "2025-12-12T20:43:07.294025+00:00",
        "meta_object_name": "GPS BIII-8  (PRN 21)",
        "meta_object_id": "2025-116A",
        "meta_epoch": "2025-12-12T02:49:55.740000",
        "meta_mean_motion": 2.00558325,
        "meta_eccentricity": 0.00055602,
        "meta_inclination": 55.1053,
        "meta_ra_of_asc_node": 38.6656,
        "meta_arg_of_pericenter": 307.8472,
        "meta_mean_anomaly": 53.3313,
        "meta_ephemeris_type": 0,
        "meta_classification_type": "U",
        "meta_norad_cat_id": 64202,
        "meta_element_set_no": 999,
        "meta_rev_at_epoch": 412,
        "meta_bstar": 0,
        "meta_mean_motion_dot": -9.7e-07,
        "meta_mean_motion_ddot": 0,
        "tle_line1": "1 64202U 25116A   25346.11800625 -.00000097  00000+0  00000+0 0  9997",
        "tle_line2": "2 64202  55.1053  38.6656 0005560 307.8472  53.3313  2.00558325  4121"
      },
      "geometry": {
        "type": "Point",
        "coordinates": [
          -141.7826790239751,
          0.6211282989057416
        ]
      }
    }
  ]
}